STARLINK-3366           
1 51104U 22005A   26068.87200473  .00000873  00000+0  72901-4 0  9993
2 51104  53.2165 288.3062 0001080  86.7312 273.3804 15.08843448228903
LEMUR-2-AHMED-ASRAR     
1 60576U 24149DN  26068.73265438  .00013045  00000+0  79773-3 0  9992
2 60576  97.7021 152.9847 0001633  18.5035 341.6253 15.10376432 85541
